[{"OBJECT_NAME":"STARLINK-3555","OBJECT_ID":"2022-022M","EPOCH":"2026-03-09T23:18:46.488960","MEAN_MOTION":15.0883657,"ECCENTRICITY":0.00015296,"INCLINATION":53.2181,"RA_OF_ASC_NODE":7.8583,"ARG_OF_PERICENTER":95.1453,"MEAN_ANOMALY":264.9714,"EPHEMERIS_TYPE":0,"CLASSIFICATION_TYPE":"U","NORAD_CAT_ID":51863,"ELEMENT_SET_NO":999,"REV_AT_EPOCH":22315,"BSTAR":-0.00036011537,"MEAN_MOTION_DOT":-6.014e-5,"MEAN_MOTION_DDOT":0},{"OBJECT_NAME":"LEMUR-2-THERMORAPTOR","OBJECT_ID":"2025-061D","EPOCH":"2026-03-09T21:59:50.013312","MEAN_MOTION":15.13256334,"ECCENTRICITY":0.00176188,"INCLINATION":97.562,"RA_OF_ASC_NODE":45.6468,"ARG_OF_PERICENTER":235.5571,"MEAN_ANOMALY":124.3996,"EPHEMERIS_TYPE":0,"CLASSIFICATION_TYPE":"U","NORAD_CAT_ID":63354,"ELEMENT_SET_NO":999,"REV_AT_EPOCH":5259,"BSTAR":0.00030402789,"MEAN_MOTION_DOT":5.359e-5,"MEAN_MOTION_DDOT":0}]
